[{"OBJECT_NAME":"ONEWEB-0706","OBJECT_ID":"2024-188T","EPOCH":"2025-07-27T18:27:33.429888","MEAN_MOTION":13.1037306,"ECCENTRICITY":0.0001524,"INCLINATION":87.8808,"RA_OF_ASC_NODE":100.9757,"ARG_OF_PERICENTER":66.1653,"MEAN_ANOMALY":293.9634,"EPHEMERIS_TYPE":0,"CLASSIFICATION_TYPE":"U","NORAD_CAT_ID":61611,"ELEMENT_SET_NO":999,"REV_AT_EPOCH":4089,"BSTAR":0.0018991,"MEAN_MOTION_DOT":6.76e-6,"MEAN_MOTION_DDOT":0},{"OBJECT_NAME":"ONEWEB-0707","OBJECT_ID":"2024-188U","EPOCH":"2025-07-27T14:57:18.887328","MEAN_MOTION":13.10372546,"ECCENTRICITY":0.0001552,"INCLINATION":87.8796,"RA_OF_ASC_NODE":100.9708,"ARG_OF_PERICENTER":59.3469,"MEAN_ANOMALY":300.7811,"EPHEMERIS_TYPE":0,"CLASSIFICATION_TYPE":"U","NORAD_CAT_ID":61612,"ELEMENT_SET_NO":999,"REV_AT_EPOCH":4081,"BSTAR":0.0014656,"MEAN_MOTION_DOT":5.24e-6,"MEAN_MOTION_DDOT":0},{"OBJECT_NAME":"ONEWEB-0708","OBJECT_ID":"2024-188V","EPOCH":"2025-07-28T04:13:14.324736","MEAN_MOTION":13.1037088,"ECCENTRICITY":0.0001066,"INCLINATION":87.8842,"RA_OF_ASC_NODE":100.889,"ARG_OF_PERICENTER":65.4926,"MEAN_ANOMALY":294.6313,"EPHEMERIS_TYPE":0,"CLASSIFICATION_TYPE":"U","NORAD_CAT_ID":61613,"ELEMENT_SET_NO":999,"REV_AT_EPOCH":3913,"BSTAR":-0.00056596,"MEAN_MOTION_DOT":-1.85e-6,"MEAN_MOTION_DDOT":0}]
